NORAD_CAT_ID,OBJECT_NAME,OBJECT_TYPE,EPOCH,MEAN_MOTION,ECCENTRICITY,INCLINATION,RA_OF_ASC_NODE,ARG_OF_PERICENTER,MEAN_ANOMALY,BSTAR,MEAN_MOTION_DOT,MEAN_MOTION_DDOT,TLE_LINE0,TLE_LINE1,TLE_LINE2,SEMIMAJOR_AXIS,PERIOD,APOGEE,PERIGEE,DECAYED
53573.0,STARLINK-4547,PAYLOAD,2023-09-22 22:02:22,15.08854943,0.0001389,53.2163,128.6912,106.6511,253.4634,0.00058256,8.999e-05,0.0,0 STARLINK-4547,1 53573U 22101AY  23265.91831603  .00008999  00000-0  58256-3 0  9992,2 53573  53.2163 128.6912 0001389 106.6511 253.4634 15.08854943 60768,6917.835,95.437,540.661,538.739,0.0
53573.0,STARLINK-4547,PAYLOAD,2023-09-23 18:42:23,15.08846876,0.000168,53.2164,124.8269,122.0159,238.0996,0.00016134,2.281e-05,0.0,0 STARLINK-4547,1 53573U 22101AY  23266.77943451  .00002281  00000-0  16134-3 0  9999,2 53573  53.2164 124.8269 0001680 122.0159 238.0996 15.08846876 60896,6917.859,95.437,540.887,538.562,0.0
53573.0,STARLINK-4547,PAYLOAD,2023-09-24 01:03:55,15.08846405,0.0001316,53.2163,123.6356,96.963,263.1512,0.00011626,1.563e-05,0.0,0 STARLINK-4547,1 53573U 22101AY  23267.04439479  .00001563  00000-0  11626-3 0  9993,2 53573  53.2163 123.6356 0001316  96.9630 263.1512 15.08846405 60934,6917.861,95.437,540.636,538.815,0.0
53573.0,STARLINK-4547,PAYLOAD,2023-09-24 18:33:10,15.08841012,0.000124,53.2159,120.3644,90.7763,269.3372,-1.346e-05,-5.02e-06,0.0,0 STARLINK-4547,1 53573U 22101AY  23267.77303659 -.00000502  00000-0 -13460-4 0  9996,2 53573  53.2159 120.3644 0001240  90.7763 269.3372 15.08841012 61042,6917.877,95.437,540.6,538.884,0.0
53573.0,STARLINK-4547,PAYLOAD,2023-09-24 21:43:56,15.08846603,0.0001276,53.2158,119.7695,98.4608,261.6528,3.1159e-05,2.08e-06,0.0,0 STARLINK-4547,1 53573U 22101AY  23267.90551478  .00000208  00000-0  31159-4 0  9991,2 53573  53.2158 119.7695 0001276  98.4608 261.6528 15.08846603 61062,6917.86,95.437,540.608,538.842,0.0
53573.0,STARLINK-4547,PAYLOAD,2023-09-25 07:16:14,15.08850223,0.000134,53.2158,117.984,122.6506,237.4616,-3.7504e-05,-8.85e-06,0.0,0 STARLINK-4547,1 53573U 22101AY  23268.30295060 -.00000885  00000-0 -37504-4 0  9991,2 53573  53.2158 117.9840 0001340 122.6506 237.4616 15.08850223 61122,6917.849,95.437,540.641,538.787,0.0
53573.0,STARLINK-4547,PAYLOAD,2023-09-25 21:34:43,15.08852132,0.0001253,53.2159,115.3073,94.1186,265.995,0.00028627,4.273e-05,0.0,0 STARLINK-4547,1 53573U 22101AY  23268.89911180  .00004273  00000-0  28627-3 0  9991,2 53573  53.2159 115.3073 0001253  94.1186 265.9950 15.08852132 61211,6917.843,95.437,540.575,538.842,0.0
53573.0,STARLINK-4547,PAYLOAD,2023-09-26 13:28:35,15.08834929,0.0001204,53.2164,112.3331,97.0496,263.0633,6.598e-06,-1.83e-06,0.0,0 STARLINK-4547,1 53573U 22101AY  23269.56152017 -.00000183  00000-0  65980-5 0  9994,2 53573  53.2164 112.3331 0001204  97.0496 263.0633 15.08834929 61315,6917.896,95.438,540.594,538.928,0.0
53573.0,STARLINK-4547,PAYLOAD,2023-09-26 18:14:44,15.08838184,0.0001265,53.2152,111.4414,100.3102,259.8033,5.7141e-05,6.22e-06,0.0,0 STARLINK-4547,1 53573U 22101AY  23269.76023917  .00000622  00000-0  57141-4 0  9998,2 53573  53.2152 111.4414 0001265 100.3102 259.8033 15.08838184 61340,6917.886,95.438,540.626,538.876,0.0
53573.0,STARLINK-4547,PAYLOAD,2023-09-26 19:50:07,15.08840003,0.0001297,53.2152,111.1441,94.6414,265.4726,0.00010949,1.455e-05,0.0,0 STARLINK-4547,1 53573U 22101AY  23269.82647927  .00001455  00000-0  10949-3 0  9997,2 53573  53.2152 111.1441 0001297  94.6414 265.4726 15.08840003 61359,6917.88,95.438,540.643,538.848,0.0
53573.0,STARLINK-4547,PAYLOAD,2023-09-27 06:57:49,15.08838667,0.0001273,53.215,109.0625,96.5263,263.5874,0.00011592,1.557e-05,0.0,0 STARLINK-4547,1 53573U 22101AY  23270.29016109  .00001557  00000-0  11592-3 0  9990,2 53573  53.2150 109.0625 0001273  96.5263 263.5874 15.08838667 61428,6917.884,95.438,540.63,538.869,0.0
53573.0,STARLINK-4547,PAYLOAD,2023-09-27 19:40:55,15.08840353,0.0001499,53.216,106.6856,86.2355,273.8808,0.00013015,1.784e-05,0.0,0 STARLINK-4547,1 53573U 22101AY  23270.82008351  .00001784  00000-0  13015-3 0  9993,2 53573  53.2160 106.6856 0001499  86.2355 273.8808 15.08840353 61501,6917.879,95.438,540.781,538.707,0.0
53573.0,STARLINK-4547,PAYLOAD,2023-09-28 19:31:42,15.08845422,0.0001496,53.2159,102.224,92.3425,267.7738,0.00025172,3.721e-05,0.0,0 STARLINK-4547,1 53573U 22101AY  23271.81368226  .00003721  00000-0  25172-3 0  9993,2 53573  53.2159 102.2240 0001496  92.3425 267.7738 15.08845422 61653,6917.864,95.437,540.764,538.694,0.0
53573.0,STARLINK-4547,PAYLOAD,2023-09-29 11:25:33,15.08847062,0.0001504,53.2161,99.2505,91.487,268.6295,0.00017793,2.545e-05,0.0,0 STARLINK-4547,1 53573U 22101AY  23272.47607978  .00002545  00000-0  17793-3 0  9999,2 53573  53.2161  99.2505 0001504  91.4870 268.6295 15.08847062 61750,6917.859,95.437,540.764,538.683,0.0
53573.0,STARLINK-4547,PAYLOAD,2023-09-29 13:00:56,15.08847179,0.0001488,53.2162,98.953,94.3842,265.732,0.00018748,2.698e-05,0.0,0 STARLINK-4547,1 53573U 22101AY  23272.54231945  .00002698  00000-0  18748-3 0  9994,2 53573  53.2162  98.9530 0001488  94.3842 265.7320 15.08847179 61764,6917.858,95.437,540.753,538.694,0.0
53573.0,STARLINK-4547,PAYLOAD,2023-09-29 19:22:28,15.08850203,0.000149,53.2164,97.7637,98.5399,261.5761,0.0001816,2.604e-05,0.0,0 STARLINK-4547,1 53573U 22101AY  23272.80727619  .00002604  00000-0  18160-3 0  9996,2 53573  53.2164  97.7637 0001490  98.5399 261.5761 15.08850203 61807,6917.849,95.437,540.745,538.683,0.0
53573.0,STARLINK-4547,PAYLOAD,2023-09-30 17:37:52,15.08841361,0.000156,53.2169,93.6005,105.9214,254.195,2.8578e-05,1.67e-06,0.0,0 STARLINK-4547,1 53573U 22101AY  23273.73463866  .00000167  00000-0  28578-4 0  9997,2 53573  53.2169  93.6005 0001560 105.9214 254.1950 15.08841361 61941,6917.876,95.437,540.82,538.662,0.0
53573.0,STARLINK-4547,PAYLOAD,2023-10-01 11:07:07,15.08836423,0.0001728,53.217,90.3311,101.2689,258.8498,0.00024121,3.553e-05,0.0,0 STARLINK-4547,1 53573U 22101AY  23274.46328102  .00003553  00000-0  24121-3 0  9992,2 53573  53.2170  90.3311 0001728 101.2689 258.8498 15.08836423 62052,6917.891,95.438,540.952,538.561,0.0
53573.0,STARLINK-4547,PAYLOAD,2023-10-01 19:04:02,15.08843134,0.0001318,53.2172,88.8441,92.6431,267.4712,6.4875e-05,7.45e-06,0.0,0 STARLINK-4547,1 53573U 22101AY  23274.79447761  .00000745  00000-0  64875-4 0  9992,2 53573  53.2172  88.8441 0001318  92.6431 267.4712 15.08843134 62101,6917.871,95.437,540.648,538.824,0.0
53573.0,STARLINK-4547,PAYLOAD,2023-10-02 10:57:54,15.08833715,0.0001346,53.2169,85.8712,94.7882,265.3264,1.5028e-05,-4.9e-07,0.0,0 STARLINK-4547,1 53573U 22101AY  23275.45688414 -.00000049  00000-0  15028-4 0  9992,2 53573  53.2169  85.8712 0001346  94.7882 265.3264 15.08833715 62203,6917.9,95.438,540.696,538.833,0.0
53573.0,STARLINK-4547,PAYLOAD,2023-10-02 18:54:50,15.08836401,0.0001477,53.2182,84.383,96.1696,263.9464,5.8671e-05,6.46e-06,0.0,0 STARLINK-4547,1 53573U 22101AY  23275.78808714  .00000646  00000-0  58671-4 0  9998,2 53573  53.2182  84.3830 0001477  96.1696 263.9464 15.08836401 62253,6917.891,95.438,540.778,538.735,0.0
53573.0,STARLINK-4547,PAYLOAD,2023-10-03 10:48:42,15.08833763,0.0001404,53.2172,81.4077,83.6336,276.4816,0.00012079,1.635e-05,0.0,0 STARLINK-4547,1 53573U 22101AY  23276.45048995  .00001635  00000-0  12079-3 0  9990,2 53573  53.2172  81.4077 0001404  83.6336 276.4816 15.08833763 62354,6917.899,95.438,540.736,538.793,0.0
53573.0,STARLINK-4547,PAYLOAD,2023-10-03 18:45:37,15.08842832,0.0001352,53.2161,79.9209,80.0903,280.0241,0.00013098,1.797e-05,0.0,0 STARLINK-4547,1 53573U 22101AY  23276.78168511  .00001797  00000-0  13098-3 0  9994,2 53573  53.2161  79.9209 0001352  80.0903 280.0241 15.08842832 62400,6917.872,95.437,540.672,538.801,0.0
53573.0,STARLINK-4547,PAYLOAD,2023-10-04 10:39:29,15.08843105,0.0001423,53.2163,76.9481,82.5358,277.5796,0.00025665,3.799e-05,0.0,0 STARLINK-4547,1 53573U 22101AY  23277.44408618  .00003799  00000-0  25665-3 0  9990,2 53573  53.2163  76.9481 0001423  82.5358 277.5796 15.08843105 62502,6917.871,95.437,540.72,538.751,0.0
53573.0,STARLINK-4547,PAYLOAD,2023-10-04 17:01:01,15.08850285,0.0001251,53.2162,75.7591,68.9556,291.157,0.00027118,4.032e-05,0.0,0 STARLINK-4547,1 53573U 22101AY  23277.70904217  .00004032  00000-0  27118-3 0  9991,2 53573  53.2162  75.7591 0001251  68.9556 291.1570 15.08850285 62540,6917.849,95.437,540.579,538.849,0.0
53573.0,STARLINK-4547,PAYLOAD,2023-10-05 10:30:16,15.08842332,0.000172,53.217,72.4884,95.8064,264.3125,0.00010894,1.446e-05,0.0,0 STARLINK-4547,1 53573U 22101AY  23278.43768577  .00001446  00000-0  10894-3 0  9998,2 53573  53.2170  72.4884 0001720  95.8064 264.3125 15.08842332 62656,6917.873,95.437,540.928,538.548,0.0
53573.0,STARLINK-4547,PAYLOAD,2023-10-05 13:41:02,15.08838238,0.0001741,53.2171,71.8936,94.6673,265.4518,2.5774e-05,1.22e-06,0.0,0 STARLINK-4547,1 53573U 22101AY  23278.57016736  .00000122  00000-0  25774-4 0  9990,2 53573  53.2171  71.8936 0001741  94.6673 265.4518 15.08838238 62674,6917.886,95.438,540.955,538.546,0.0
53573.0,STARLINK-4547,PAYLOAD,2023-10-05 16:51:48,15.08840627,0.0001576,53.2176,71.2982,93.7139,266.4033,1.3604e-05,-7.1e-07,0.0,0 STARLINK-4547,1 53573U 22101AY  23278.70264603 -.00000071  00000-0  13604-4 0  9996,2 53573  53.2176  71.2982 0001576  93.7139 266.4033 15.08840627 62697,6917.878,95.438,540.834,538.653,0.0
53573.0,STARLINK-4547,PAYLOAD,2023-10-06 10:21:03,15.08837196,0.0001539,53.2175,68.0269,97.0953,263.0214,-6.5509e-05,-1.33e-05,0.0,0 STARLINK-4547,1 53573U 22101AY  23279.43128918 -.00001330  00000-0 -65509-4 0  9996,2 53573  53.2175  68.0269 0001539  97.0953 263.0214 15.08837196 62802,6917.889,95.438,540.819,538.689,0.0
53573.0,STARLINK-4547,PAYLOAD,2023-10-06 13:31:49,15.08837742,0.0001632,53.2178,67.4326,98.4838,261.6339,-4.3102e-05,-9.74e-06,0.0,0 STARLINK-4547,1 53573U 22101AY  23279.56376929 -.00000974  00000-0 -43102-4 0  9995,2 53573  53.2178  67.4326 0001632  98.4838 261.6339 15.08837742 62824,6917.887,95.438,540.881,538.623,0.0
